{"fetched_at":"2026-04-16T06:04:01Z","count":5425,"tles":[{"name":"TRANSPORTER-16 OBJECT B","line1":"1 68417U 26067B   26104.13018993  .00003854  00000+0  18963-3 0  9993","line2":"2 68417  97.4513  63.5748 0003724 116.5386 243.6230 15.18589786  2220","category":"Other"}]}