{
  "norad_id": 68417,
  "name": "TRANSPORTER-16 OBJECT B",
  "history": [
    {
      "epoch": "2026-04-14T03:07:28.409952Z",
      "apogee_km": 512.6672757160004,
      "perigee_km": 507.53622667023683,
      "latitude_deg": -3.274960917184645e-05,
      "longitude_deg": 174.39539494737465,
      "height_km": 514.3296948560884,
      "semi_major_axis_km": 6888.238751193118,
      "eccentricity": 0.00037245,
      "inclination_deg": 97.4513,
      "raan_deg": 63.5748,
      "arg_perigee_deg": 116.5386,
      "mean_anomaly_deg": 243.623,
      "mean_motion_rev_day": 15.18589786
    }
  ]
}